[{"OBJECT_NAME":"STARLINK-35607","OBJECT_ID":"2025-240T","EPOCH":"2026-03-09T23:17:18.774816","MEAN_MOTION":15.30218057,"ECCENTRICITY":0.00016757,"INCLINATION":53.1612,"RA_OF_ASC_NODE":61.3393,"ARG_OF_PERICENTER":82.8478,"MEAN_ANOMALY":277.2714,"EPHEMERIS_TYPE":0,"CLASSIFICATION_TYPE":"U","NORAD_CAT_ID":66163,"ELEMENT_SET_NO":999,"REV_AT_EPOCH":2203,"BSTAR":0.0011917473,"MEAN_MOTION_DOT":0.00035124,"MEAN_MOTION_DDOT":0},{"OBJECT_NAME":"SPACEMOBILE-005 DEB","OBJECT_ID":"2024-163K","EPOCH":"2026-03-09T07:33:15.902496","MEAN_MOTION":15.31481997,"ECCENTRICITY":0.00072885,"INCLINATION":52.9762,"RA_OF_ASC_NODE":31.7924,"ARG_OF_PERICENTER":175.8731,"MEAN_ANOMALY":184.2329,"EPHEMERIS_TYPE":0,"CLASSIFICATION_TYPE":"U","NORAD_CAT_ID":62373,"ELEMENT_SET_NO":999,"REV_AT_EPOCH":8280,"BSTAR":0.00063853778,"MEAN_MOTION_DOT":0.00019381,"MEAN_MOTION_DDOT":0}]
